ONEWEB-0607             
1 54671U 22166AF  25165.92238604 -.00000046  00000+0 -14364-3 0  9995
2 54671  87.9259 317.2185 0001684  95.5411 264.5915 13.21826758123489
ONEWEB-0608             
1 54672U 22166AG  25166.15579444  .00000024  00000+0  26449-4 0  9994
2 54672  87.9240 317.1635 0001334  87.7334 272.3952 13.21825672123525
ONEWEB-0610             
1 54673U 22166AH  25165.45559166  .00000069  00000+0  13512-3 0  9991
2 54673  87.9260 317.3308 0001501  85.9352 274.1953 13.21826913122870
ONEWEB-0611             
1 54674U 22166AJ  25165.44928956 -.00000013  00000+0 -62554-4 0  9990
2 54674  87.9263 317.3290 0002034 100.8233 259.3130 13.21826081122868
ONEWEB-0612             
1 54675U 22166AK  25165.46191292 -.00000055  00000+0 -16538-3 0  9994
2 54675  87.9258 317.3042 0001679  93.8654 266.2672 13.21826729122856
ONEWEB-0615             
1 54676U 22166AL  25165.67006493  .00000109  00000+0  23240-3 0  9992
2 54676  87.9257 317.2892 0001878  97.6611 262.4736 13.21825874122897
ONEWEB-0655             
1 54677U 22166AM  25166.17313480 -.00000012  00000+0 -60699-4 0  9991
2 54677  87.9259 317.1932 0001620 105.8193 254.3119 13.21822993123420
ONEWEB-0659             
1 54678U 22166AN  25165.66061443 -.00000004  00000+0 -42302-4 0  9996
2 54678  87.9259 317.2972 0001982  94.5479 265.5881 13.21826651122972
